JAS-2 (FO-29)           
1 24278U 96046B   26065.83729335 -.00000016  00000+0  20170-4 0  9998
2 24278  98.5384 288.6427 0349945   2.1678 358.0885 13.53268552459327
FORTE                   
1 24920U 97047A   26065.19088754  .00000280  00000+0  13615-3 0  9993
2 24920  69.9512 246.6512 0019480  54.8047 305.4896 14.27896483483986
NOAA 15                 
1 25338U 98030A   26065.82411872  .00000197  00000+0  98166-4 0  9993
2 25338  98.5166  89.1802 0009112 289.6128  70.4069 14.27111239446691
TECHSAT 1B (GO-32)      
1 25397U 98043D   26065.57909317  .00000123  00000+0  73413-4 0  9997
2 25397  99.0025  55.7755 0001981 124.4522 235.6844 14.24405139436723
ISS (ZARYA)             
1 25544U 98067A   26065.54469341  .00009332  00000+0  18044-3 0  9991
2 25544  51.6317  87.9051 0008117 163.3368 196.7888 15.48477653555846
ORSTED                  
1 25635U 99008B   26065.55234287  .00000778  00000+0  17986-3 0  9997
2 25635  96.4810 356.3883 0132825 155.1718 205.5953 14.51676183427077
LANDSAT 7               
1 25682U 99020A   26065.78056860  .00000734  00000+0  14920-3 0  9994
2 25682  97.8608  74.1076 0001727  84.0227 328.1281 14.63817206430862
ORBCOMM FM36            
1 25984U 99065E   26065.78235462  .00001499  00000+0  52725-3 0  9999
2 25984  45.0389 285.6557 0002576 171.3050 188.7844 14.38974069372232
DMSP 5D-3 F15 (USA 147) 
1 25991U 99067A   26065.86321759  .00000217  00000+0  12977-3 0  9995
2 25991  99.0102 103.0801 0008990 296.4411  53.9986 14.17519112356146
OPAL (OO-38)            
1 26063U 00004C   26065.33553236  .00000291  00000+0  11538-3 0  9992
2 26063 100.1888 343.2189 0035483 326.8721  33.0238 14.37922914368500
IMAGE                   
1 26113U 00017A   26062.14518067  .00000070  00000+0  30215-2 0  9998
2 26113  94.1357 313.9399 7512344 299.9178   6.8844  1.68665517159710
CLUSTER II-FM7 (SAMBA)  
1 26410U 00041A   26063.25310773  .00003639  00000+0  00000+0 0  9992
2 26410 148.9920  34.5676 8908777 250.6745 359.7226  0.44785609 19832
CLUSTER II-FM8 (TANGO)  
1 26464U 00045B   26049.06287974  .00004776  00000+0  00000+0 0  9997
2 26464 149.0711  33.5376 8890045 249.4570 359.4916  0.44405995 19769
MEGSAT-1                
1 26546U 00057B   26065.62671819  .00006238  00000+0  44531-3 0  9992
2 26546  64.5513  37.6068 0037867 294.9785  64.7401 15.04820981382221
PHASE 3D (AO-40)        
1 26609U 00072B   26065.10585624 -.00000377  00000+0  00000+0 0  9998
2 26609   9.5759   6.8547 7943145 146.0854 310.1650  1.25587948116217
ODIN                    
1 26702U 01007A   26065.51647981  .00055418  00000+0  72978-3 0  9993
2 26702  97.4078 101.4322 0004352 148.2779 211.8740 15.58268209373348
OMNI-M1                 
1 26857U 01026A   26062.74241185 -.00000018  00000+0  00000+0 0  9993
2 26857  44.8765 269.5571 0017726  28.8085 331.3220  3.92402319201430
