[{"OBJECT_NAME":"JAS-2 (FO-29)","OBJECT_ID":"1996-046B","EPOCH":"2026-03-06T20:05:42.145440","MEAN_MOTION":13.53268552,"ECCENTRICITY":0.0349945,"INCLINATION":98.5384,"RA_OF_ASC_NODE":288.6427,"ARG_OF_PERICENTER":2.1678,"MEAN_ANOMALY":358.0885,"EPHEMERIS_TYPE":0,"CLASSIFICATION_TYPE":"U","NORAD_CAT_ID":24278,"ELEMENT_SET_NO":999,"REV_AT_EPOCH":45932,"BSTAR":2.017e-5,"MEAN_MOTION_DOT":-1.6e-7,"MEAN_MOTION_DDOT":0},{"OBJECT_NAME":"FORTE","OBJECT_ID":"1997-047A","EPOCH":"2026-03-06T04:34:52.683456","MEAN_MOTION":14.27896483,"ECCENTRICITY":0.00194808,"INCLINATION":69.9512,"RA_OF_ASC_NODE":246.6512,"ARG_OF_PERICENTER":54.8047,"MEAN_ANOMALY":305.4896,"EPHEMERIS_TYPE":0,"CLASSIFICATION_TYPE":"U","NORAD_CAT_ID":24920,"ELEMENT_SET_NO":999,"REV_AT_EPOCH":48398,"BSTAR":0.00013614829,"MEAN_MOTION_DOT":2.8e-6,"MEAN_MOTION_DDOT":0},{"OBJECT_NAME":"NOAA 15","OBJECT_ID":"1998-030A","EPOCH":"2026-03-06T19:46:43.857408","MEAN_MOTION":14.27111239,"ECCENTRICITY":0.0009112,"INCLINATION":98.5166,"RA_OF_ASC_NODE":89.1802,"ARG_OF_PERICENTER":289.6128,"MEAN_ANOMALY":70.4069,"EPHEMERIS_TYPE":0,"CLASSIFICATION_TYPE":"U","NORAD_CAT_ID":25338,"ELEMENT_SET_NO":999,"REV_AT_EPOCH":44669,"BSTAR":9.8166e-5,"MEAN_MOTION_DOT":1.97e-6,"MEAN_MOTION_DDOT":0},{"OBJECT_NAME":"TECHSAT 1B (GO-32)","OBJECT_ID":"1998-043D","EPOCH":"2026-03-06T13:53:53.649888","MEAN_MOTION":14.24405139,"ECCENTRICITY":0.00019818,"INCLINATION":99.0025,"RA_OF_ASC_NODE":55.7755,"ARG_OF_PERICENTER":124.4522,"MEAN_ANOMALY":235.6844,"EPHEMERIS_TYPE":0,"CLASSIFICATION_TYPE":"U","NORAD_CAT_ID":25397,"ELEMENT_SET_NO":999,"REV_AT_EPOCH":43672,"BSTAR":7.3413085e-5,"MEAN_MOTION_DOT":1.23e-6,"MEAN_MOTION_DDOT":0},{"OBJECT_NAME":"ISS (ZARYA)","OBJECT_ID":"1998-067A","EPOCH":"2026-03-06T13:04:21.510624","MEAN_MOTION":15.48477653,"ECCENTRICITY":0.00081171,"INCLINATION":51.6317,"RA_OF_ASC_NODE":87.9051,"ARG_OF_PERICENTER":163.3368,"MEAN_ANOMALY":196.7888,"EPHEMERIS_TYPE":0,"CLASSIFICATION_TYPE":"U","NORAD_CAT_ID":25544,"ELEMENT_SET_NO":999,"REV_AT_EPOCH":55584,"BSTAR":0.00018044032,"MEAN_MOTION_DOT":9.332e-5,"MEAN_MOTION_DDOT":0},{"OBJECT_NAME":"ORSTED","OBJECT_ID":"1999-008B","EPOCH":"2026-03-06T13:15:22.423968","MEAN_MOTION":14.51676183,"ECCENTRICITY":0.01328255,"INCLINATION":96.481,"RA_OF_ASC_NODE":356.3883,"ARG_OF_PERICENTER":155.1718,"MEAN_ANOMALY":205.5953,"EPHEMERIS_TYPE":0,"CLASSIFICATION_TYPE":"U","NORAD_CAT_ID":25635,"ELEMENT_SET_NO":999,"REV_AT_EPOCH":42707,"BSTAR":0.00017986404,"MEAN_MOTION_DOT":7.78e-6,"MEAN_MOTION_DDOT":0},{"OBJECT_NAME":"LANDSAT 7","OBJECT_ID":"1999-020A","EPOCH":"2026-03-06T18:44:01.127040","MEAN_MOTION":14.63817206,"ECCENTRICITY":0.0001727,"INCLINATION":97.8608,"RA_OF_ASC_NODE":74.1076,"ARG_OF_PERICENTER":84.0227,"MEAN_ANOMALY":328.1281,"EPHEMERIS_TYPE":0,"CLASSIFICATION_TYPE":"U","NORAD_CAT_ID":25682,"ELEMENT_SET_NO":999,"REV_AT_EPOCH":43086,"BSTAR":0.0001492,"MEAN_MOTION_DOT":7.34e-6,"MEAN_MOTION_DDOT":0},{"OBJECT_NAME":"ORBCOMM FM36","OBJECT_ID":"1999-065E","EPOCH":"2026-03-06T18:46:35.439168","MEAN_MOTION":14.38974069,"ECCENTRICITY":0.0002576,"INCLINATION":45.0389,"RA_OF_ASC_NODE":285.6557,"ARG_OF_PERICENTER":171.305,"MEAN_ANOMALY":188.7844,"EPHEMERIS_TYPE":0,"CLASSIFICATION_TYPE":"U","NORAD_CAT_ID":25984,"ELEMENT_SET_NO":999,"REV_AT_EPOCH":37223,"BSTAR":0.00052725,"MEAN_MOTION_DOT":1.499e-5,"MEAN_MOTION_DDOT":0},{"OBJECT_NAME":"DMSP 5D-3 F15 (USA 147)","OBJECT_ID":"1999-067A","EPOCH":"2026-03-06T20:43:01.999776","MEAN_MOTION":14.17519112,"ECCENTRICITY":0.000899,"INCLINATION":99.0102,"RA_OF_ASC_NODE":103.0801,"ARG_OF_PERICENTER":296.4411,"MEAN_ANOMALY":53.9986,"EPHEMERIS_TYPE":0,"CLASSIFICATION_TYPE":"U","NORAD_CAT_ID":25991,"ELEMENT_SET_NO":999,"REV_AT_EPOCH":35614,"BSTAR":0.00012977,"MEAN_MOTION_DOT":2.17e-6,"MEAN_MOTION_DDOT":0},{"OBJECT_NAME":"OPAL (OO-38)","OBJECT_ID":"2000-004C","EPOCH":"2026-03-06T08:03:09.995904","MEAN_MOTION":14.37922914,"ECCENTRICITY":0.00354832,"INCLINATION":100.1888,"RA_OF_ASC_NODE":343.2189,"ARG_OF_PERICENTER":326.8721,"MEAN_ANOMALY":33.0238,"EPHEMERIS_TYPE":0,"CLASSIFICATION_TYPE":"U","NORAD_CAT_ID":26063,"ELEMENT_SET_NO":999,"REV_AT_EPOCH":36850,"BSTAR":0.00011537636,"MEAN_MOTION_DOT":2.91e-6,"MEAN_MOTION_DDOT":0},{"OBJECT_NAME":"IMAGE","OBJECT_ID":"2000-017A","EPOCH":"2026-03-03T03:29:03.609888","MEAN_MOTION":1.68665517,"ECCENTRICITY":0.75123448,"INCLINATION":94.1357,"RA_OF_ASC_NODE":313.9399,"ARG_OF_PERICENTER":299.9178,"MEAN_ANOMALY":6.8844,"EPHEMERIS_TYPE":0,"CLASSIFICATION_TYPE":"U","NORAD_CAT_ID":26113,"ELEMENT_SET_NO":999,"REV_AT_EPOCH":15971,"BSTAR":0.0030214692,"MEAN_MOTION_DOT":7.0e-7,"MEAN_MOTION_DDOT":0},{"OBJECT_NAME":"CLUSTER II-FM7 (SAMBA)","OBJECT_ID":"2000-041A","EPOCH":"2026-03-04T06:04:28.507872","MEAN_MOTION":0.44785609,"ECCENTRICITY":0.89087774,"INCLINATION":148.992,"RA_OF_ASC_NODE":34.5676,"ARG_OF_PERICENTER":250.6745,"MEAN_ANOMALY":359.7226,"EPHEMERIS_TYPE":0,"CLASSIFICATION_TYPE":"U","NORAD_CAT_ID":26410,"ELEMENT_SET_NO":999,"REV_AT_EPOCH":1983,"BSTAR":0,"MEAN_MOTION_DOT":3.639e-5,"MEAN_MOTION_DDOT":0},{"OBJECT_NAME":"CLUSTER II-FM8 (TANGO)","OBJECT_ID":"2000-045B","EPOCH":"2026-02-18T01:30:32.809536","MEAN_MOTION":0.44405995,"ECCENTRICITY":0.88900451,"INCLINATION":149.0711,"RA_OF_ASC_NODE":33.5376,"ARG_OF_PERICENTER":249.457,"MEAN_ANOMALY":359.4916,"EPHEMERIS_TYPE":0,"CLASSIFICATION_TYPE":"U","NORAD_CAT_ID":26464,"ELEMENT_SET_NO":999,"REV_AT_EPOCH":1976,"BSTAR":0,"MEAN_MOTION_DOT":4.776e-5,"MEAN_MOTION_DDOT":0},{"OBJECT_NAME":"MEGSAT-1","OBJECT_ID":"2000-057B","EPOCH":"2026-03-06T15:02:28.451616","MEAN_MOTION":15.04820981,"ECCENTRICITY":0.00378672,"INCLINATION":64.5513,"RA_OF_ASC_NODE":37.6068,"ARG_OF_PERICENTER":294.9785,"MEAN_ANOMALY":64.7401,"EPHEMERIS_TYPE":0,"CLASSIFICATION_TYPE":"U","NORAD_CAT_ID":26546,"ELEMENT_SET_NO":999,"REV_AT_EPOCH":38222,"BSTAR":0.00044531352,"MEAN_MOTION_DOT":6.238e-5,"MEAN_MOTION_DDOT":0},{"OBJECT_NAME":"PHASE 3D (AO-40)","OBJECT_ID":"2000-072B","EPOCH":"2026-03-06T02:32:25.979136","MEAN_MOTION":1.25587948,"ECCENTRICITY":0.79431458,"INCLINATION":9.5759,"RA_OF_ASC_NODE":6.8547,"ARG_OF_PERICENTER":146.0854,"MEAN_ANOMALY":310.165,"EPHEMERIS_TYPE":0,"CLASSIFICATION_TYPE":"U","NORAD_CAT_ID":26609,"ELEMENT_SET_NO":999,"REV_AT_EPOCH":11621,"BSTAR":0,"MEAN_MOTION_DOT":-3.77e-6,"MEAN_MOTION_DDOT":0},{"OBJECT_NAME":"ODIN","OBJECT_ID":"2001-007A","EPOCH":"2026-03-06T12:23:43.855584","MEAN_MOTION":15.58268209,"ECCENTRICITY":0.00043526,"INCLINATION":97.4078,"RA_OF_ASC_NODE":101.4322,"ARG_OF_PERICENTER":148.2779,"MEAN_ANOMALY":211.874,"EPHEMERIS_TYPE":0,"CLASSIFICATION_TYPE":"U","NORAD_CAT_ID":26702,"ELEMENT_SET_NO":999,"REV_AT_EPOCH":37334,"BSTAR":0.00072978244,"MEAN_MOTION_DOT":0.00055418,"MEAN_MOTION_DDOT":0},{"OBJECT_NAME":"OMNI-M1","OBJECT_ID":"2001-026A","EPOCH":"2026-03-03T17:49:04.383840","MEAN_MOTION":3.92402319,"ECCENTRICITY":0.0017726,"INCLINATION":44.8765,"RA_OF_ASC_NODE":269.5571,"ARG_OF_PERICENTER":28.8085,"MEAN_ANOMALY":331.322,"EPHEMERIS_TYPE":0,"CLASSIFICATION_TYPE":"U","NORAD_CAT_ID":26857,"ELEMENT_SET_NO":999,"REV_AT_EPOCH":20143,"BSTAR":0,"MEAN_MOTION_DOT":-1.8e-7,"MEAN_MOTION_DDOT":0}]
